OBJECT_NAME,OBJECT_ID,EPOCH,MEAN_MOTION,ECCENTRICITY,INCLINATION,RA_OF_ASC_NODE,ARG_OF_PERICENTER,MEAN_ANOMALY,EPHEMERIS_TYPE,CLASSIFICATION_TYPE,NORAD_CAT_ID,ELEMENT_SET_NO,REV_AT_EPOCH,BSTAR,MEAN_MOTION_DOT,MEAN_MOTION_DDOT
STARLINK-38051,2026-160L,2026-07-22T01:17:20.114592,15.81786945,.00133893,70.0040,6.1789,240.6123,119.3743,0,U,100011,999,247,.59912115E-3,.123189E-2,0
STARLINK-38092,2026-160M,2026-07-22T11:54:21.406176,15.80063059,.00050247,70.0030,4.9126,275.3330,84.7297,0,U,100012,999,254,-.5118317E-2,-.866669E-2,0
STARLINK-37719,2026-160N,2026-07-22T01:15:29.659968,15.82458851,.00060906,70.0025,6.1739,276.0968,83.9540,0,U,100013,999,247,-.35301207E-2,-.682762E-2,0
STARLINK-38106,2026-160P,2026-07-22T01:14:29.988672,15.82666576,.00094097,70.0014,6.1722,248.5803,111.4396,0,U,100014,999,247,-.32327797E-2,-.636435E-2,0
STARLINK-37299,2026-160Q,2026-07-22T01:13:37.478208,15.82634248,.00108303,70.0026,6.1696,240.1746,119.8380,0,U,100015,999,247,.11914232E-2,.258413E-2,0
STARLINK-38052,2026-160R,2026-07-22T01:12:48.677760,15.84093947,.00126587,70.0056,6.1668,311.2209,48.7902,0,U,100016,999,247,.14591661E-2,.342721E-2,0
STARLINK-38114,2026-160S,2026-07-22T01:11:50.545248,15.83110088,.00110876,70.0027,6.1631,242.5035,117.5041,0,U,100017,999,247,.65486733E-3,.143292E-2,0
STARLINK-37239,2026-160T,2026-07-22T11:48:22.229280,15.81483806,.00050793,70.0008,4.8956,287.6122,72.4525,0,U,100018,999,254,-.45601297E-2,-.828282E-2,0
STARLINK-37580,2026-160U,2026-07-22T11:47:24.274752,15.81699249,.00063436,70.0028,4.8926,285.9618,74.0884,0,U,100019,999,254,-.45525202E-2,-.835355E-2,0
STARLINK-38032,2026-160V,2026-07-22T11:46:27.994656,15.82222711,.0006436,70.0014,4.8892,249.0512,111.0002,0,U,100020,999,254,-.1175732E-2,-.236554E-2,0
STARLINK-38110,2026-160W,2026-07-22T11:45:28.259424,15.82515639,.00067006,70.0020,4.8872,244.1080,115.9432,0,U,100021,999,254,.44952761E-3,.94798E-3,0
STARLINK-38103,2026-160X,2026-07-22T11:44:31.933536,15.82573965,.0006342,70.0015,4.8840,251.6169,108.4343,0,U,100022,999,254,-.11365481E-2,-.232551E-2,0
STARLINK-38102,2026-160Y,2026-07-22T11:43:37.030656,15.82521215,.00041771,70.0016,4.8823,295.5055,64.5715,0,U,100023,999,254,-.42740141E-2,-.815627E-2,0
STARLINK-38108,2026-160Z,2026-07-22T11:42:38.434176,15.83059650,.00068721,70.0014,4.8789,216.7234,143.3499,0,U,100024,999,254,.12653308E-2,.280019E-2,0
STARLINK-38109,2026-160AA,2026-07-22T11:41:41.644320,15.83271119,.00063591,70.0007,4.8791,238.0822,121.9763,0,U,100025,999,254,.44541031E-3,.97326E-3,0
STARLINK-38034,2026-160AB,2026-07-22T11:40:37.576128,15.82793634,.00056607,70.0012,4.8744,282.5381,77.5187,0,U,100026,999,254,-.44993165E-2,-.865654E-2,0
STARLINK-38094,2026-160AC,2026-07-22T11:39:40.789728,15.82970260,.00053361,70.0027,4.8718,279.9546,80.1054,0,U,100027,999,254,-.43305915E-2,-.842219E-2,0
STARLINK-37844,2026-161A,2026-07-22T13:18:58.504320,15.88355559,.00021674,53.1604,284.7035,154.2394,205.8740,0,U,100028,999,244,-.43521396E-2,-.1089584E-1,0
STARLINK-37610,2026-161B,2026-07-22T13:18:00.367488,15.88384997,.00011295,53.1605,284.6991,100.8124,259.3030,0,U,100029,999,131,-.28023313E-2,-.731887E-2,0
STARLINK-37845,2026-161C,2026-07-22T11:46:37.768224,15.88264865,.00013465,53.1609,285.0135,46.3116,313.8021,0,U,100030,999,130,-.38835468E-2,-.97997E-2,0
STARLINK-37336,2026-161D,2026-07-22T13:16:11.425728,15.88628966,.00014627,53.1602,284.6903,92.4490,267.6703,0,U,100031,999,131,-.28417499E-2,-.749931E-2,0
STARLINK-37481,2026-161E,2026-07-22T13:14:26.364192,15.88896198,.00015351,53.1607,284.6814,89.3168,270.8034,0,U,100032,999,131,-.28188093E-2,-.753692E-2,0
STARLINK-37458,2026-161F,2026-07-22T13:13:29.266752,15.88999499,.00014936,53.1602,284.6777,89.4891,270.6307,0,U,100033,999,131,-.28428492E-2,-.763267E-2,0
STARLINK-37917,2026-161G,2026-07-22T13:12:41.364864,15.89161095,.00013503,53.1603,284.6737,95.1912,264.9268,0,U,100034,999,131,-.27780488E-2,-.752844E-2,0
STARLINK-37415,2026-161H,2026-07-22T13:11:50.973792,15.89234034,.00023613,53.1610,284.6665,100.9097,259.2195,0,U,100035,999,131,-.16245299E-2,-.457038E-2,0
STARLINK-37560,2026-161J,2026-07-22T13:10:59.388672,15.89430311,.0001741,53.1603,284.6658,71.7669,288.3547,0,U,100036,999,131,-.2716367E-2,-.746901E-2,0
STARLINK-37847,2026-161K,2026-07-22T13:09:59.402016,15.89527943,.00016658,53.1605,284.6600,109.3340,250.7867,0,U,100037,999,131,-.27741913E-2,-.765014E-2,0
STARLINK-37672,2026-161L,2026-07-22T13:09:08.461440,15.89667832,.00015054,53.1600,284.6567,96.2832,263.8366,0,U,100038,999,131,-.26993654E-2,-.750853E-2,0
STARLINK-37693,2026-161M,2026-07-22T13:08:22.719552,15.89823626,.00016387,53.1597,284.6540,83.7463,276.3750,0,U,100039,999,131,-.273226E-2,-.764911E-2,0
STARLINK-37714,2026-161N,2026-07-22T13:07:33.540672,15.89965499,.00014913,53.1601,284.6486,103.0929,257.0265,0,U,100040,999,131,-.27350811E-2,-.770724E-2,0
