{"epoch":1784762836,"count":18316,"objects":[{"id":"100011","name":"STARLINK-38051","type":"PAYLOAD","l1":"1 A0011U 26160L   26203.05370503  .00123189  00000-0  59912-3 0  9996","l2":"2 A0011  70.0040   6.1789 0013389 240.6123 119.3743 15.81786945  2473"},{"id":"100012","name":"STARLINK-38092","type":"PAYLOAD","l1":"1 A0012U 26160M   26203.49608109 -.00866669  00000-0 -51183-2 0  9991","l2":"2 A0012  70.0030   4.9126 0005025 275.3330  84.7297 15.80063059  2547"},{"id":"100013","name":"STARLINK-37719","type":"PAYLOAD","l1":"1 A0013U 26160N   26203.05242662 -.00682762  00000-0 -35301-2 0  9996","l2":"2 A0013  70.0025   6.1739 0006091 276.0968  83.9540 15.82458851  2479"},{"id":"100014","name":"STARLINK-38106","type":"PAYLOAD","l1":"1 A0014U 26160P   26203.05173598 -.00636435  00000-0 -32328-2 0  9990","l2":"2 A0014  70.0014   6.1722 0009410 248.5803 111.4396 15.82666576  2471"},{"id":"100015","name":"STARLINK-37299","type":"PAYLOAD","l1":"1 A0015U 26160Q   26203.05112822  .00258413  00000-0  11914-2 0  9996","l2":"2 A0015  70.0026   6.1696 0010830 240.1746 119.8380 15.82634248  2473"},{"id":"100016","name":"STARLINK-38052","type":"PAYLOAD","l1":"1 A0016U 26160R   26203.05056340  .00342721  00000-0  14592-2 0  9990","l2":"2 A0016  70.0056   6.1668 0012659 311.2209  48.7902 15.84093947  2478"},{"id":"100017","name":"STARLINK-38114","type":"PAYLOAD","l1":"1 A0017U 26160S   26203.04989057  .00143292  00000-0  65487-3 0  9992","l2":"2 A0017  70.0027   6.1631 0011088 242.5035 117.5041 15.83110088  2479"},{"id":"100018","name":"STARLINK-37239","type":"PAYLOAD","l1":"1 A0018U 26160T   26203.49192395 -.00828282  00000-0 -45601-2 0  9999","l2":"2 A0018  70.0008   4.8956 0005079 287.6122  72.4525 15.81483806  2547"},{"id":"100019","name":"STARLINK-37580","type":"PAYLOAD","l1":"1 A0019U 26160U   26203.49125318 -.00835355  00000-0 -45525-2 0  9995","l2":"2 A0019  70.0028   4.8926 0006344 285.9618  74.0884 15.81699249  2540"},{"id":"100020","name":"STARLINK-38032","type":"PAYLOAD","l1":"1 A0020U 26160V   26203.49060179 -.00236554  00000-0 -11757-2 0  9996","l2":"2 A0020  70.0014   4.8892 0006436 249.0512 111.0002 15.82222711  2546"},{"id":"100021","name":"STARLINK-38110","type":"PAYLOAD","l1":"1 A0021U 26160W   26203.48991041  .00094798  00000-0  44953-3 0  9992","l2":"2 A0021  70.0020   4.8872 0006701 244.1080 115.9432 15.82515639  2547"},{"id":"100022","name":"STARLINK-38103","type":"PAYLOAD","l1":"1 A0022U 26160X   26203.48925849 -.00232551  00000-0 -11365-2 0  9999","l2":"2 A0022  70.0015   4.8840 0006342 251.6169 108.4343 15.82573965  2543"},{"id":"100023","name":"STARLINK-38102","type":"PAYLOAD","l1":"1 A0023U 26160Y   26203.48862304 -.00815627  00000-0 -42740-2 0  9998","l2":"2 A0023  70.0016   4.8823 0004177 295.5055  64.5715 15.82521215  2547"},{"id":"100024","name":"STARLINK-38108","type":"PAYLOAD","l1":"1 A0024U 26160Z   26203.48794484  .00280019  00000-0  12653-2 0  9991","l2":"2 A0024  70.0014   4.8789 0006872 216.7234 143.3499 15.83059650  2540"},{"id":"100025","name":"STARLINK-38109","type":"PAYLOAD","l1":"1 A0025U 26160AA  26203.48728755  .00097326  00000-0  44541-3 0  9999","l2":"2 A0025  70.0007   4.8791 0006359 238.0822 121.9763 15.83271119  2548"},{"id":"100026","name":"STARLINK-38034","type":"PAYLOAD","l1":"1 A0026U 26160AB  26203.48654602 -.00865654  00000-0 -44993-2 0  9998","l2":"2 A0026  70.0012   4.8744 0005661 282.5381  77.5187 15.82793634  2548"},{"id":"100027","name":"STARLINK-38094","type":"PAYLOAD","l1":"1 A0027U 26160AC  26203.48588877 -.00842219  00000-0 -43306-2 0  9998","l2":"2 A0027  70.0027   4.8718 0005336 279.9546  80.1054 15.82970260  2543"},{"id":"100028","name":"STARLINK-37844","type":"PAYLOAD","l1":"1 A0028U 26161A   26203.55484380 -.01089584  00000-0 -43521-2 0  9990","l2":"2 A0028  53.1604 284.7035 0002167 154.2394 205.8740 15.88355559  2444"},{"id":"100029","name":"STARLINK-37610","type":"PAYLOAD","l1":"1 A0029U 26161B   26203.55417092 -.00731887  00000-0 -28023-2 0  9996","l2":"2 A0029  53.1605 284.6991 0001129 100.8124 259.3030 15.88384997  1310"},{"id":"100030","name":"STARLINK-37845","type":"PAYLOAD","l1":"1 A0030U 26161C   26203.49071491 -.00979970  00000-0 -38835-2 0  9999","l2":"2 A0030  53.1609 285.0135 0001347  46.3116 313.8021 15.88264865  1304"},{"id":"100031","name":"STARLINK-37336","type":"PAYLOAD","l1":"1 A0031U 26161D   26203.55291002 -.00749931  00000-0 -28417-2 0  9996","l2":"2 A0031  53.1602 284.6903 0001463  92.4490 267.6703 15.88628966  1312"},{"id":"100032","name":"STARLINK-37481","type":"PAYLOAD","l1":"1 A0032U 26161E   26203.55169403 -.00753692  00000-0 -28188-2 0  9990","l2":"2 A0032  53.1607 284.6814 0001535  89.3168 270.8034 15.88896198  1313"},{"id":"100033","name":"STARLINK-37458","type":"PAYLOAD","l1":"1 A0033U 26161F   26203.55103318 -.00763267  00000-0 -28428-2 0  9990","l2":"2 A0033  53.1602 284.6777 0001494  89.4891 270.6307 15.88999499  1314"},{"id":"100034","name":"STARLINK-37917","type":"PAYLOAD","l1":"1 A0034U 26161G   26203.55047876 -.00752844  00000-0 -27780-2 0  9996","l2":"2 A0034  53.1603 284.6737 0001350  95.1912 264.9268 15.89161095  1317"},{"id":"100035","name":"STARLINK-37415","type":"PAYLOAD","l1":"1 A0035U 26161H   26203.54989553 -.00457038  00000-0 -16245-2 0  9994","l2":"2 A0035  53.1610 284.6665 0002361 100.9097 259.2195 15.89234034  1318"},{"id":"100036","name":"STARLINK-37560","type":"PAYLOAD","l1":"1 A0036U 26161J   26203.54929848 -.00746901  00000-0 -27164-2 0  9998","l2":"2 A0036  53.1603 284.6658 0001741  71.7669 288.3547 15.89430311  1314"},{"id":"100037","name":"STARLINK-37847","type":"PAYLOAD","l1":"1 A0037U 26161K   26203.54860419 -.00765014  00000-0 -27742-2 0  9995","l2":"2 A0037  53.1605 284.6600 0001666 109.3340 250.7867 15.89527943  1310"},{"id":"100038","name":"STARLINK-37672","type":"PAYLOAD","l1":"1 A0038U 26161L   26203.54801460 -.00750853  00000-0 -26994-2 0  9990","l2":"2 A0038  53.1600 284.6567 0001505  96.2832 263.8366 15.89667832  1311"},{"id":"100039","name":"STARLINK-37693","type":"PAYLOAD","l1":"1 A0039U 26161M   26203.54748518 -.00764911  00000-0 -27323-2 0  9992","l2":"2 A0039  53.1597 284.6540 0001639  83.7463 276.3750 15.89823626  1318"},{"id":"100040","name":"STARLINK-37714","type":"PAYLOAD","l1":"1 A0040U 26161N   26203.54691598 -.00770724  00000-0 -27351-2 0  9999","l2":"2 A0040  53.1601 284.6486 0001491 103.0929 257.0265 15.89965499  1316"}]}